{"type": "FeatureCollection", "features": [ {"type": "Feature", "properties": {"norad_id": 66899, "name": "STARLINK-36064", "group": "last-30-days", "lat": -9.611323581808634, "lon": 3.878133178599563, "alt_km": 385.1206736173772, "timestamp": "2025-12-25T07:00:32.765254+00:00", "meta": {"OBJECT_NAME": "STARLINK-36064", "OBJECT_ID": "2025-283X", "EPOCH": "2025-12-24T22:00:03.000096", "MEAN_MOTION": 15.6326026, "ECCENTRICITY": 0.00012372, "INCLINATION": 53.16, "RA_OF_ASC_NODE": 13.0029, "ARG_OF_PERICENTER": 76.6274, "MEAN_ANOMALY": 318.9934, "EPHEMERIS_TYPE": 0, "CLASSIFICATION_TYPE": "U", "NORAD_CAT_ID": 66899, "ELEMENT_SET_NO": 999, "REV_AT_EPOCH": 432, "BSTAR": -0.023819457, "MEAN_MOTION_DOT": -0.01961389, "MEAN_MOTION_DDOT": 0}, "tle": {"line1": "1 66899U 25283X   25358.91670139 -.01961389  00000+0 -23819-1 0  9999", "line2": "2 66899  53.1600  13.0029 0001237  76.6274 318.9934 15.63260260  4322"}}, "geometry": {"type": "Point", "coordinates": [3.878133178599563, -9.611323581808634]}}, {"type": "Feature", "properties": {"norad_id": 66900, "name": "STARLINK-36074", "group": "last-30-days", "lat": -8.087892725791498, "lon": 5.052081806546973, "alt_km": 384.87248104428, "timestamp": "2025-12-25T07:00:32.765264+00:00", "meta": {"OBJECT_NAME": "STARLINK-36074", "OBJECT_ID": "2025-283Y", "EPOCH": "2025-12-24T22:00:03.000096", "MEAN_MOTION": 15.63259728, "ECCENTRICITY": 0.0001209, "INCLINATION": 53.1602, "RA_OF_ASC_NODE": 12.9988, "ARG_OF_PERICENTER": 72.6253, "MEAN_ANOMALY": 324.9131, "EPHEMERIS_TYPE": 0, "CLASSIFICATION_TYPE": "U", "NORAD_CAT_ID": 66900, "ELEMENT_SET_NO": 999, "REV_AT_EPOCH": 438, "BSTAR": -0.02381222, "MEAN_MOTION_DOT": -0.01960807, "MEAN_MOTION_DDOT": 0}, "tle": {"line1": "1 66900U 25283Y   25358.91670139 -.01960807  00000+0 -23812-1 0  9999", "line2": "2 66900  53.1602  12.9988 0001209  72.6253 324.9131 15.63259728  4380"}}, "geometry": {"type": "Point", "coordinates": [5.052081806546973, -8.087892725791498]}}, {"type": "Feature", "properties": {"norad_id": 66901, "name": "STARLINK-36043", "group": "last-30-days", "lat": -6.561086019305814, "lon": 6.216717288135446, "alt_km": 384.6992596951086, "timestamp": "2025-12-25T07:00:32.765276+00:00", "meta": {"OBJECT_NAME": "STARLINK-36043", "OBJECT_ID": "2025-283Z", "EPOCH": "2025-12-24T22:00:03.000096", "MEAN_MOTION": 15.63263165, "ECCENTRICITY": 0.00011934, "INCLINATION": 53.1598, "RA_OF_ASC_NODE": 12.9944, "ARG_OF_PERICENTER": 74.8763, "MEAN_ANOMALY": 324.5777, "EPHEMERIS_TYPE": 0, "CLASSIFICATION_TYPE": "U", "NORAD_CAT_ID": 66901, "ELEMENT_SET_NO": 999, "REV_AT_EPOCH": 438, "BSTAR": -0.023875588, "MEAN_MOTION_DOT": -0.01965624, "MEAN_MOTION_DDOT": 0}, "tle": {"line1": "1 66901U 25283Z   25358.91670139 -.01965624  00000+0 -23876-1 0  9992", "line2": "2 66901  53.1598  12.9944 0001193  74.8763 324.5777 15.63263165  4381"}}, "geometry": {"type": "Point", "coordinates": [6.216717288135446, -6.561086019305814]}}, {"type": "Feature", "properties": {"norad_id": 66902, "name": "STARLINK-35983", "group": "last-30-days", "lat": -5.03115387696358, "lon": 7.375461009659133, "alt_km": 384.51988868857916, "timestamp": "2025-12-25T07:00:32.765286+00:00", "meta": {"OBJECT_NAME": "STARLINK-35983", "OBJECT_ID": "2025-283AA", "EPOCH": "2025-12-24T22:00:03.000096", "MEAN_MOTION": 15.63261139, "ECCENTRICITY": 0.00011652, "INCLINATION": 53.1599, "RA_OF_ASC_NODE": 12.9908, "ARG_OF_PERICENTER": 76.9947, "MEAN_ANOMALY": 324.3791, "EPHEMERIS_TYPE": 0, "CLASSIFICATION_TYPE": "U", "NORAD_CAT_ID": 66902, "ELEMENT_SET_NO": 999, "REV_AT_EPOCH": 438, "BSTAR": -0.02386622, "MEAN_MOTION_DOT": -0.01964786, "MEAN_MOTION_DDOT": 0}, "tle": {"line1": "1 66902U 25283AA  25358.91670139 -.01964786  00000+0 -23866-1 0  9990", "line2": "2 66902  53.1599  12.9908 0001165  76.9947 324.3791 15.63261139  4382"}}, "geometry": {"type": "Point", "coordinates": [7.375461009659133, -5.03115387696358]}}, {"type": "Feature", "properties": {"norad_id": 66903, "name": "STARLINK-36077", "group": "last-30-days", "lat": -3.5005655173953842, "lon": 8.52735355049361, "alt_km": 384.26625581103326, "timestamp": "2025-12-25T07:00:32.765298+00:00", "meta": {"OBJECT_NAME": "STARLINK-36077", "OBJECT_ID": "2025-283AB", "EPOCH": "2025-12-24T22:00:03.000096", "MEAN_MOTION": 15.63262143, "ECCENTRICITY": 0.0001182, "INCLINATION": 53.1598, "RA_OF_ASC_NODE": 12.9869, "ARG_OF_PERICENTER": 74.249, "MEAN_ANOMALY": 329.0389, "EPHEMERIS_TYPE": 0, "CLASSIFICATION_TYPE": "U", "NORAD_CAT_ID": 66903, "ELEMENT_SET_NO": 999, "REV_AT_EPOCH": 438, "BSTAR": -0.023850766, "MEAN_MOTION_DOT": -0.01963748, "MEAN_MOTION_DDOT": 0}, "tle": {"line1": "1 66903U 25283AB  25358.91670139 -.01963748  00000+0 -23851-1 0  9992", "line2": "2 66903  53.1598  12.9869 0001182  74.2490 329.0389 15.63262143  4382"}}, "geometry": {"type": "Point", "coordinates": [8.52735355049361, -3.5005655173953842]}}, {"type": "Feature", "properties": {"norad_id": 66904, "name": "STARLINK-36059", "group": "last-30-days", "lat": -1.9668317778461404, "lon": 9.675903215800261, "alt_km": 384.0678711599894, "timestamp": "2025-12-25T07:00:32.765309+00:00", "meta": {"OBJECT_NAME": "STARLINK-36059", "OBJECT_ID": "2025-283AC", "EPOCH": "2025-12-24T22:00:03.000096", "MEAN_MOTION": 15.63260982, "ECCENTRICITY": 0.00011226, "INCLINATION": 53.1599, "RA_OF_ASC_NODE": 12.9821, "ARG_OF_PERICENTER": 75.5664, "MEAN_ANOMALY": 329.6393, "EPHEMERIS_TYPE": 0, "CLASSIFICATION_TYPE": "U", "NORAD_CAT_ID": 66904, "ELEMENT_SET_NO": 999, "REV_AT_EPOCH": 438, "BSTAR": -0.02382707, "MEAN_MOTION_DOT": -0.01961908, "MEAN_MOTION_DDOT": 0}, "tle": {"line1": "1 66904U 25283AC  25358.91670139 -.01961908  00000+0 -23827-1 0  9992", "line2": "2 66904  53.1599  12.9821 0001122  75.5664 329.6393 15.63260982  4383"}}, "geometry": {"type": "Point", "coordinates": [9.675903215800261, -1.9668317778461404]}}, {"type": "Feature", "properties": {"norad_id": 66905, "name": "STARLINK-36075", "group": "last-30-days", "lat": -0.43544852019147373, "lon": 10.821154140393848, "alt_km": 383.82112664016313, "timestamp": "2025-12-25T07:00:32.765319+00:00", "meta": {"OBJECT_NAME": "STARLINK-36075", "OBJECT_ID": "2025-283AD", "EPOCH": "2025-12-24T22:00:03.000096", "MEAN_MOTION": 15.63260723, "ECCENTRICITY": 0.00012572, "INCLINATION": 53.1598, "RA_OF_ASC_NODE": 12.9785, "ARG_OF_PERICENTER": 75.4712, "MEAN_ANOMALY": 331.6496, "EPHEMERIS_TYPE": 0, "CLASSIFICATION_TYPE": "U", "NORAD_CAT_ID": 66905, "ELEMENT_SET_NO": 999, "REV_AT_EPOCH": 438, "BSTAR": -0.02380956, "MEAN_MOTION_DOT": -0.01960718, "MEAN_MOTION_DDOT": 0}, "tle": {"line1": "1 66905U 25283AD  25358.91670139 -.01960718  00000+0 -23810-1 0  9993", "line2": "2 66905  53.1598  12.9785 0001257  75.4712 331.6496 15.63260723  4384"}}, "geometry": {"type": "Point", "coordinates": [10.821154140393848, -0.43544852019147373]}}, {"type": "Feature", "properties": {"norad_id": 66906, "name": "1998-067XS", "group": "last-30-days", "lat": -9.885907245128417, "lon": 72.20016606596079, "alt_km": 414.7739586482194, "timestamp": "2025-12-25T07:00:32.765329+00:00", "meta": {"OBJECT_NAME": "1998-067XS", "OBJECT_ID": "1998-067XS", "EPOCH": "2025-12-24T12:30:34.892352", "MEAN_MOTION": 15.51195693, "ECCENTRICITY": 0.00027903, "INCLINATION": 51.6318, "RA_OF_ASC_NODE": 83.9644, "ARG_OF_PERICENTER": 262.1551, "MEAN_ANOMALY": 97.9122, "EPHEMERIS_TYPE": 0, "CLASSIFICATION_TYPE": "U", "NORAD_CAT_ID": 66906, "ELEMENT_SET_NO": 999, "REV_AT_EPOCH": 344, "BSTAR": 0.00051725581, "MEAN_MOTION_DOT": 0.00030459, "MEAN_MOTION_DDOT": 0}, "tle": {"line1": "1 66906U 98067XS  25358.52123718  .00030459  00000+0  51726-3 0  9993", "line2": "2 66906  51.6318  83.9644 0002790 262.1551  97.9122 15.51195693  3443"}}, "geometry": {"type": "Point", "coordinates": [72.20016606596079, -9.885907245128417]}}, {"type": "Feature", "properties": {"norad_id": 66907, "name": "1998-067XT", "group": "last-30-days", "lat": 43.80709127811707, "lon": 129.4401187613313, "alt_km": 403.3437941085631, "timestamp": "2025-12-25T07:00:32.765352+00:00", "meta": {"OBJECT_NAME": "1998-067XT", "OBJECT_ID": "1998-067XT", "EPOCH": "2025-12-24T10:39:56.166048", "MEAN_MOTION": 15.52879993, "ECCENTRICITY": 0.00038856, "INCLINATION": 51.6313, "RA_OF_ASC_NODE": 84.2012, "ARG_OF_PERICENTER": 298.2919, "MEAN_ANOMALY": 61.7678, "EPHEMERIS_TYPE": 0, "CLASSIFICATION_TYPE": "U", "NORAD_CAT_ID": 66907, "ELEMENT_SET_NO": 999, "REV_AT_EPOCH": 343, "BSTAR": 0.0010726177, "MEAN_MOTION_DOT": 0.00067981, "MEAN_MOTION_DDOT": 0}, "tle": {"line1": "1 66907U 98067XT  25358.44440007  .00067981  00000+0  10726-2 0  9992", "line2": "2 66907  51.6313  84.2012 0003885 298.2919  61.7678 15.52879993  3433"}}, "geometry": {"type": "Point", "coordinates": [129.4401187613313, 43.80709127811707]}}, {"type": "Feature", "properties": {"norad_id": 66908, "name": "1998-067XU", "group": "last-30-days", "lat": 46.69039393885471, "lon": 137.1520880018023, "alt_km": 402.9148225127374, "timestamp": "2025-12-25T07:00:32.765365+00:00", "meta": {"OBJECT_NAME": "1998-067XU", "OBJECT_ID": "1998-067XU", "EPOCH": "2025-12-24T10:38:25.805472", "MEAN_MOTION": 15.52977314, "ECCENTRICITY": 0.00038638, "INCLINATION": 51.6323, "RA_OF_ASC_NODE": 84.1936, "ARG_OF_PERICENTER": 296.7785, "MEAN_ANOMALY": 63.2809, "EPHEMERIS_TYPE": 0, "CLASSIFICATION_TYPE": "U", "NORAD_CAT_ID": 66908, "ELEMENT_SET_NO": 999, "REV_AT_EPOCH": 343, "BSTAR": 0.0010585814, "MEAN_MOTION_DOT": 0.00067317, "MEAN_MOTION_DDOT": 0}, "tle": {"line1": "1 66908U 98067XU  25358.44335423  .00067317  00000+0  10586-2 0  9995", "line2": "2 66908  51.6323  84.1936 0003863 296.7785  63.2809 15.52977314  3438"}}, "geometry": {"type": "Point", "coordinates": [137.1520880018023, 46.69039393885471]}}]}